OBJECT_NAME,OBJECT_ID,EPOCH,MEAN_MOTION,ECCENTRICITY,INCLINATION,RA_OF_ASC_NODE,ARG_OF_PERICENTER,MEAN_ANOMALY,EPHEMERIS_TYPE,CLASSIFICATION_TYPE,NORAD_CAT_ID,ELEMENT_SET_NO,REV_AT_EPOCH,BSTAR,MEAN_MOTION_DOT,MEAN_MOTION_DDOT
BEIDOU-2 G8 (C01),2019-027A,2026-06-13T06:59:44.718720,1.00272151,.00102799,1.6467,74.5020,282.5550,154.0328,0,U,44231,999,2604,0,-.236E-5,0
COSMOS 2534 (758),2019-030A,2026-06-13T08:05:59.000352,2.13102166,.00133514,64.3684,192.7461,275.2342,150.5180,0,U,44299,999,5484,0,.115E-5,0
BEIDOU-3 IGSO-2 (C39),2019-035A,2026-06-11T23:39:28.530432,1.00267954,.00399259,55.2458,158.9084,216.2500,359.8397,0,U,44337,999,2561,0,-.41E-6,0
GPS BIII-2  (PRN 18),2019-056A,2026-06-12T15:50:54.242592,2.00569410,.00618671,55.6395,331.3227,197.5828,161.1492,0,U,44506,999,4997,0,-.7E-6,0
BEIDOU-3 M24 (C46),2019-061A,2026-06-11T08:03:49.249152,1.86229258,.0008267,54.3962,182.9254,358.9131,1.1499,0,U,44542,999,4568,0,.129E-5,0
BEIDOU-3 M23 (C45),2019-061B,2026-06-13T05:05:48.113088,1.86227312,.00055804,54.3947,182.8303,337.9862,111.7077,0,U,44543,999,4572,0,.117E-5,0
EUTELSAT 5 WEST B (EGNOS/PRN 121),2019-067A,2026-06-13T06:17:05.720064,1.00271927,.00029132,0.0628,357.6230,83.7618,269.4877,0,U,44624,999,2439,0,-.3E-6,0
BEIDOU-3 IGSO-3 (C40),2019-073A,2026-05-16T19:27:04.075776,1.00246251,.0042953,54.8566,281.2355,189.4588,170.3676,0,U,44709,999,2414,0,-.217E-5,0
BEIDOU-3 M22 (C44),2019-078A,2026-06-12T18:52:38.701056,1.86227395,.0006462,53.9403,299.9835,50.1486,309.8916,0,U,44793,999,4456,0,-.68E-6,0
BEIDOU-3 M21 (C43),2019-078B,2026-06-12T09:20:55.392000,1.86227878,.00043244,53.9139,299.9585,48.1956,311.8252,0,U,44794,999,4456,0,-.68E-6,0
COSMOS 2544 (759),2019-088A,2026-06-09T23:46:15.168576,2.13102164,.00134315,65.5614,73.9710,259.4785,100.3880,0,U,44850,999,5056,0,-.23E-6,0
BEIDOU-3 M19 (C41),2019-090A,2026-06-12T19:09:26.030016,1.86231512,.00178945,56.5546,62.9362,297.9267,173.3886,0,U,44864,999,4415,0,-.56E-6,0
BEIDOU-3 M20 (C42),2019-090B,2026-06-13T07:27:18.209952,1.86231453,.00157459,56.5565,62.9542,311.9209,232.5278,0,U,44865,999,4414,0,-.55E-6,0
BEIDOU-3 G2 (C60),2020-017A,2026-06-13T01:33:23.365728,1.00272615,.00021895,2.8546,47.2727,32.7659,284.7664,0,U,45344,999,2321,0,-.13E-5,0
COSMOS 2545 (760),2020-018A,2026-06-11T14:14:17.205216,2.13102630,.00081557,64.3587,312.6159,231.1724,128.7459,0,U,45358,999,4854,0,-.45E-6,0
BEIDOU-3 G3 (C61),2020-040A,2026-06-13T06:50:00.652992,1.00268740,.00025032,2.4362,67.4406,336.7928,70.4276,0,U,45807,999,2203,0,-.343E-5,0
GPS BIII-3  (PRN 23),2020-041A,2026-06-11T13:28:43.319136,2.00558626,.00636043,56.6657,29.1622,204.6361,19.3768,0,U,45854,999,4392,0,-.63E-6,0
GALAXY 30 (WAAS/PRN 135),2020-056C,2026-06-13T06:19:10.960320,1.00270054,.00020763,0.0263,4.2630,85.2436,141.8652,0,U,46114,999,2125,0,0,0
COSMOS 2547 (705K),2020-075A,2026-06-12T17:18:40.313088,2.13100258,.00092459,64.5993,192.6246,239.6069,120.3788,0,U,46805,999,4381,0,.119E-5,0
GPS BIII-4  (PRN 14),2020-078A,2026-06-13T07:29:48.268608,2.00564726,.00734343,53.9802,210.9360,207.1619,177.1494,0,U,46826,999,4143,0,.89E-6,0
GPS BIII-5  (PRN 11),2021-054A,2026-06-12T11:54:52.804800,2.00569085,.00252978,55.1770,332.6484,228.5782,112.8004,0,U,48859,999,3665,0,-.71E-6,0
QZS-1R (QZSS/PRN 196),2021-096A,2026-06-12T15:30:26.090784,1.00256900,.07544862,37.4525,79.6520,271.6998,276.5137,0,U,49336,999,1696,0,-.26E-5,0
GSAT0223 (GALILEO 27),2021-116A,2026-06-11T03:10:17.992416,1.70475860,.00014044,57.1623,341.8389,187.4451,176.2704,0,U,49809,999,2808,0,-.65E-6,0
GSAT0224 (GALILEO 28),2021-116B,2026-06-11T12:44:48.532128,1.70475859,.0000988,57.1633,341.8270,155.4898,205.7028,0,U,49810,999,2811,0,-.66E-6,0
COSMOS 2557 (706K),2022-075A,2026-06-12T21:15:15.092640,2.13102288,.00102223,64.3011,314.6375,275.3123,84.5589,0,U,52984,999,3062,0,-.51E-6,0
COSMOS 2559 (707K),2022-130A,2026-06-10T08:36:50.817600,2.13101643,.00124272,64.2757,314.8093,178.3735,181.6269,0,U,54031,999,2854,0,-.39E-6,0
COSMOS 2564 (761),2022-161A,2026-06-13T00:25:37.419744,2.13101986,.00121417,64.7413,192.8502,224.5907,135.3886,0,U,54377,999,2754,0,.118E-5,0
GPS BIII-6  (PRN 28),2023-009A,2026-06-12T03:02:56.980032,2.00571739,.00062561,55.1221,148.7180,318.0841,154.7932,0,U,55268,999,2514,0,.93E-6,0
BEIDOU-3 G4 (C62),2023-066A,2026-06-13T06:58:29.839296,1.00275055,.00042905,0.4916,330.4029,181.8988,353.9188,0,U,56564,999,1135,0,-.268E-5,0
NVS-01 (IRNSS-1J),2023-076A,2026-06-13T06:55:30.127296,1.00266550,.00031745,2.1758,244.5341,37.0395,213.4371,0,U,56759,999,1107,0,-.321E-5,0
COSMOS 2569 (703K),2023-114A,2026-06-13T00:43:20.520768,2.13103647,.00108188,65.2998,72.7606,296.8248,63.0846,0,U,57517,999,2217,0,-.32E-6,0
